{"type": "FeatureCollection", "features": [ {"type": "Feature", "properties": {"norad_id": 66727, "name": "FLOCK 4H-24", "group": "last-30-days", "lat": -19.56532560171574, "lon": 71.86419141920543, "alt_km": 518.8304765463372, "timestamp": "2025-12-23T14:49:07.964200+00:00", "meta": {"OBJECT_NAME": "FLOCK 4H-24", "OBJECT_ID": "2025-276BP", "EPOCH": "2025-12-23T03:49:35.550336", "MEAN_MOTION": 15.17327671, "ECCENTRICITY": 0.00028289, "INCLINATION": 97.4441, "RA_OF_ASC_NODE": 68.7507, "ARG_OF_PERICENTER": 260.9946, "MEAN_ANOMALY": 99.0967, "EPHEMERIS_TYPE": 0, "CLASSIFICATION_TYPE": "U", "NORAD_CAT_ID": 66727, "ELEMENT_SET_NO": 999, "REV_AT_EPOCH": 370, "BSTAR": 0.00032241061, "MEAN_MOTION_DOT": 6.365e-05, "MEAN_MOTION_DDOT": 0}, "tle": {"line1": "1 66727U 25276BP  25357.15943924  .00006365  00000+0  32241-3 0  9993", "line2": "2 66727  97.4441  68.7507 0002828 260.9946  99.0967 15.17327671  3708"}}, "geometry": {"type": "Point", "coordinates": [71.86419141920543, -19.56532560171574]}}, {"type": "Feature", "properties": {"norad_id": 66728, "name": "FLOCK 4H-25", "group": "last-30-days", "lat": 58.808481473431335, "lon": 56.75233469182536, "alt_km": 504.9525605050949, "timestamp": "2025-12-23T14:49:07.964217+00:00", "meta": {"OBJECT_NAME": "FLOCK 4H-25", "OBJECT_ID": "2025-276BQ", "EPOCH": "2025-12-23T03:29:04.286400", "MEAN_MOTION": 15.18213243, "ECCENTRICITY": 0.00016693, "INCLINATION": 97.4399, "RA_OF_ASC_NODE": 68.753, "ARG_OF_PERICENTER": 118.6427, "MEAN_ANOMALY": 241.4975, "EPHEMERIS_TYPE": 0, "CLASSIFICATION_TYPE": "U", "NORAD_CAT_ID": 66728, "ELEMENT_SET_NO": 999, "REV_AT_EPOCH": 298, "BSTAR": 0.00032240731, "MEAN_MOTION_DOT": 6.53e-05, "MEAN_MOTION_DDOT": 0}, "tle": {"line1": "1 66728U 25276BQ  25357.14518850  .00006530  00000+0  32241-3 0  9993", "line2": "2 66728  97.4399  68.7530 0001669 118.6427 241.4975 15.18213243  2983"}}, "geometry": {"type": "Point", "coordinates": [56.75233469182536, 58.808481473431335]}}, {"type": "Feature", "properties": {"norad_id": 66729, "name": "FLOCK 4H-26", "group": "last-30-days", "lat": -37.10722826197041, "lon": 74.8479274161725, "alt_km": 519.750794759525, "timestamp": "2025-12-23T14:49:07.964234+00:00", "meta": {"OBJECT_NAME": "FLOCK 4H-26", "OBJECT_ID": "2025-276BR", "EPOCH": "2025-12-23T03:54:12.083904", "MEAN_MOTION": 15.17155687, "ECCENTRICITY": 0.00036732, "INCLINATION": 97.4392, "RA_OF_ASC_NODE": 68.7287, "ARG_OF_PERICENTER": 259.9693, "MEAN_ANOMALY": 100.1126, "EPHEMERIS_TYPE": 0, "CLASSIFICATION_TYPE": "U", "NORAD_CAT_ID": 66729, "ELEMENT_SET_NO": 999, "REV_AT_EPOCH": 370, "BSTAR": 0.00052287041, "MEAN_MOTION_DOT": 0.00010319, "MEAN_MOTION_DDOT": 0}, "tle": {"line1": "1 66729U 25276BR  25357.16263986  .00010319  00000+0  52287-3 0  9995", "line2": "2 66729  97.4392  68.7287 0003673 259.9693 100.1126 15.17155687  3703"}}, "geometry": {"type": "Point", "coordinates": [74.8479274161725, -37.10722826197041]}}, {"type": "Feature", "properties": {"norad_id": 66730, "name": "FLOCK 4H-27", "group": "last-30-days", "lat": 47.08700531310765, "lon": 61.12743253800652, "alt_km": 507.28886890976446, "timestamp": "2025-12-23T14:49:07.964255+00:00", "meta": {"OBJECT_NAME": "FLOCK 4H-27", "OBJECT_ID": "2025-276BS", "EPOCH": "2025-12-23T03:32:10.579488", "MEAN_MOTION": 15.18087347, "ECCENTRICITY": 0.00011864, "INCLINATION": 97.4373, "RA_OF_ASC_NODE": 68.7428, "ARG_OF_PERICENTER": 125.2651, "MEAN_ANOMALY": 234.8694, "EPHEMERIS_TYPE": 0, "CLASSIFICATION_TYPE": "U", "NORAD_CAT_ID": 66730, "ELEMENT_SET_NO": 999, "REV_AT_EPOCH": 370, "BSTAR": 0.00053241554, "MEAN_MOTION_DOT": 0.00010793, "MEAN_MOTION_DDOT": 0}, "tle": {"line1": "1 66730U 25276BS  25357.14734467  .00010793  00000+0  53242-3 0  9990", "line2": "2 66730  97.4373  68.7428 0001186 125.2651 234.8694 15.18087347  3700"}}, "geometry": {"type": "Point", "coordinates": [61.12743253800652, 47.08700531310765]}}, {"type": "Feature", "properties": {"norad_id": 66731, "name": "FLOCK 4H-28", "group": "last-30-days", "lat": -35.465013422479046, "lon": 74.51243631261733, "alt_km": 519.8302693990099, "timestamp": "2025-12-23T14:49:07.964272+00:00", "meta": {"OBJECT_NAME": "FLOCK 4H-28", "OBJECT_ID": "2025-276BT", "EPOCH": "2025-12-23T03:53:45.230784", "MEAN_MOTION": 15.17138222, "ECCENTRICITY": 0.00033107, "INCLINATION": 97.438, "RA_OF_ASC_NODE": 68.7257, "ARG_OF_PERICENTER": 261.7495, "MEAN_ANOMALY": 98.3363, "EPHEMERIS_TYPE": 0, "CLASSIFICATION_TYPE": "U", "NORAD_CAT_ID": 66731, "ELEMENT_SET_NO": 999, "REV_AT_EPOCH": 370, "BSTAR": 0.00039078668, "MEAN_MOTION_DOT": 7.689e-05, "MEAN_MOTION_DDOT": 0}, "tle": {"line1": "1 66731U 25276BT  25357.16232906  .00007689  00000+0  39079-3 0  9996", "line2": "2 66731  97.4380  68.7257 0003310 261.7495  98.3363 15.17138222  3706"}}, "geometry": {"type": "Point", "coordinates": [74.51243631261733, -35.465013422479046]}}, {"type": "Feature", "properties": {"norad_id": 66732, "name": "FLOCK 4H-29", "group": "last-30-days", "lat": -23.079192232410207, "lon": 72.37149673532532, "alt_km": 519.7599822551656, "timestamp": "2025-12-23T14:49:07.964289+00:00", "meta": {"OBJECT_NAME": "FLOCK 4H-29", "OBJECT_ID": "2025-276BU", "EPOCH": "2025-12-23T03:50:31.112448", "MEAN_MOTION": 15.17286901, "ECCENTRICITY": 0.00020889, "INCLINATION": 97.4392, "RA_OF_ASC_NODE": 68.7307, "ARG_OF_PERICENTER": 236.6345, "MEAN_ANOMALY": 123.4689, "EPHEMERIS_TYPE": 0, "CLASSIFICATION_TYPE": "U", "NORAD_CAT_ID": 66732, "ELEMENT_SET_NO": 999, "REV_AT_EPOCH": 370, "BSTAR": 0.0019114481, "MEAN_MOTION_DOT": 0.00038183, "MEAN_MOTION_DDOT": 0}, "tle": {"line1": "1 66732U 25276BU  25357.16008232  .00038183  00000+0  19114-2 0  9990", "line2": "2 66732  97.4392  68.7307 0002088 236.6345 123.4689 15.17286901  3701"}}, "geometry": {"type": "Point", "coordinates": [72.37149673532532, -23.079192232410207]}}, {"type": "Feature", "properties": {"norad_id": 66733, "name": "FLOCK 4H-30", "group": "last-30-days", "lat": -29.18058079208642, "lon": 73.37909675296858, "alt_km": 519.0917041604707, "timestamp": "2025-12-23T14:49:07.964306+00:00", "meta": {"OBJECT_NAME": "FLOCK 4H-30", "OBJECT_ID": "2025-276BV", "EPOCH": "2025-12-22T15:12:22.935456", "MEAN_MOTION": 15.17239498, "ECCENTRICITY": 0.00032964, "INCLINATION": 97.4437, "RA_OF_ASC_NODE": 68.2255, "ARG_OF_PERICENTER": 267.9679, "MEAN_ANOMALY": 92.1177, "EPHEMERIS_TYPE": 0, "CLASSIFICATION_TYPE": "U", "NORAD_CAT_ID": 66733, "ELEMENT_SET_NO": 999, "REV_AT_EPOCH": 362, "BSTAR": 0.001256861, "MEAN_MOTION_DOT": 0.00025007, "MEAN_MOTION_DDOT": 0}, "tle": {"line1": "1 66733U 25276BV  25356.63359879  .00025007  00000+0  12569-2 0  9996", "line2": "2 66733  97.4437  68.2255 0003296 267.9679  92.1177 15.17239498  3622"}}, "geometry": {"type": "Point", "coordinates": [73.37909675296858, -29.18058079208642]}}, {"type": "Feature", "properties": {"norad_id": 66734, "name": "FLOCK 4H-31", "group": "last-30-days", "lat": -29.04896675482695, "lon": 73.33222878341, "alt_km": 517.1476700077774, "timestamp": "2025-12-23T14:49:07.964324+00:00", "meta": {"OBJECT_NAME": "FLOCK 4H-31", "OBJECT_ID": "2025-276BW", "EPOCH": "2025-12-23T03:52:00.074208", "MEAN_MOTION": 15.17093447, "ECCENTRICITY": 0.0005288, "INCLINATION": 97.4364, "RA_OF_ASC_NODE": 68.7242, "ARG_OF_PERICENTER": 323.6856, "MEAN_ANOMALY": 36.4018, "EPHEMERIS_TYPE": 0, "CLASSIFICATION_TYPE": "U", "NORAD_CAT_ID": 66734, "ELEMENT_SET_NO": 999, "REV_AT_EPOCH": 370, "BSTAR": -0.0027326061, "MEAN_MOTION_DOT": -0.00053784, "MEAN_MOTION_DDOT": 0}, "tle": {"line1": "1 66734U 25276BW  25357.16111197 -.00053784  00000+0 -27326-2 0  9997", "line2": "2 66734  97.4364  68.7242 0005288 323.6856  36.4018 15.17093447  3709"}}, "geometry": {"type": "Point", "coordinates": [73.33222878341, -29.04896675482695]}}, {"type": "Feature", "properties": {"norad_id": 66735, "name": "FLOCK 4H-32", "group": "last-30-days", "lat": -30.898136043967874, "lon": 73.67641861446401, "alt_km": 519.5158738179389, "timestamp": "2025-12-23T14:49:07.964344+00:00", "meta": {"OBJECT_NAME": "FLOCK 4H-32", "OBJECT_ID": "2025-276BX", "EPOCH": "2025-12-23T03:52:34.420800", "MEAN_MOTION": 15.17229382, "ECCENTRICITY": 0.00035926, "INCLINATION": 97.4427, "RA_OF_ASC_NODE": 68.7416, "ARG_OF_PERICENTER": 258.3605, "MEAN_ANOMALY": 101.7225, "EPHEMERIS_TYPE": 0, "CLASSIFICATION_TYPE": "U", "NORAD_CAT_ID": 66735, "ELEMENT_SET_NO": 999, "REV_AT_EPOCH": 370, "BSTAR": 0.00053434316, "MEAN_MOTION_DOT": 0.0001057, "MEAN_MOTION_DDOT": 0}, "tle": {"line1": "1 66735U 25276BX  25357.16150950  .00010570  00000+0  53434-3 0  9992", "line2": "2 66735  97.4427  68.7416 0003592 258.3605 101.7225 15.17229382  3700"}}, "geometry": {"type": "Point", "coordinates": [73.67641861446401, -30.898136043967874]}}, {"type": "Feature", "properties": {"norad_id": 66736, "name": "FLOCK 4H-33", "group": "last-30-days", "lat": 61.54386320711804, "lon": 55.27119385121903, "alt_km": 505.1397814375514, "timestamp": "2025-12-23T14:49:07.964365+00:00", "meta": {"OBJECT_NAME": "FLOCK 4H-33", "OBJECT_ID": "2025-276BY", "EPOCH": "2025-12-23T03:28:21.393120", "MEAN_MOTION": 15.18291474, "ECCENTRICITY": 0.00026406, "INCLINATION": 97.4427, "RA_OF_ASC_NODE": 68.7639, "ARG_OF_PERICENTER": 158.0878, "MEAN_ANOMALY": 202.047, "EPHEMERIS_TYPE": 0, "CLASSIFICATION_TYPE": "U", "NORAD_CAT_ID": 66736, "ELEMENT_SET_NO": 999, "REV_AT_EPOCH": 370, "BSTAR": 0.00055897347, "MEAN_MOTION_DOT": 0.00011403, "MEAN_MOTION_DDOT": 0}, "tle": {"line1": "1 66736U 25276BY  25357.14469205  .00011403  00000+0  55897-3 0  9998", "line2": "2 66736  97.4427  68.7639 0002640 158.0878 202.0470 15.18291474  3708"}}, "geometry": {"type": "Point", "coordinates": [55.27119385121903, 61.54386320711804]}}]}